SL-14 R/B               
1 21423U 91042B   26021.42149188  .00000720  00000+0  88077-4 0  9998
2 21423  82.4920 264.5167 0018073  40.3443 319.9108 14.81781393846078
ERS-1                   
1 21574U 91050A   26021.49883122  .00000659  00000+0  22541-3 0  9998
2 21574  98.7897  38.5476 0031634 344.1968  15.8229 14.39403560808945
ARIANE 40 R/B           
1 21610U 91050F   26021.38455052  .00000691  00000+0  21965-3 0  9999
2 21610  98.2107  75.3740 0002694 196.2355 163.8749 14.42851632812170
INTERCOSMOS 25          
1 21819U 91086A   26021.34818588  .00001163  00000+0  22943-3 0  9994
2 21819  82.6088 338.6183 1486071 218.9547 129.4779 12.11867135490951
SL-8 R/B                
1 21876U 92008B   26020.87491780  .00000111  00000+0  98594-4 0  9998
2 21876  82.9290 303.3425 0033337 268.5208 157.1764 13.75967115702843
SL-8 R/B                
1 21938U 92020B   26021.48285764  .00000205  00000+0  19676-3 0  9999
2 21938  82.9301 188.8036 0030169  70.5941 343.2256 13.75540215694644
USA 81                  
1 21949U 92023A   26021.43467162  .00000388  00000+0  13642-3 0  9992
2 21949  85.0109 158.6854 0001974 116.2302 243.9093 14.32346040 88028
COSMOS 2219             
1 22219U 92076A   26021.47986482 -.00000070  00000+0 -12176-4 0  9998
2 22219  71.0615 116.7627 0020841 272.5339  87.3397 14.14081360711705
SL-16 R/B               
1 22220U 92076B   26021.48704336 -.00000094  00000+0 -22808-4 0  9996
2 22220  71.0006 287.8061 0012556 177.9148 354.5447 14.16850628715143
COSMOS 2221             
1 22236U 92080A   26021.35162009  .00004694  00000+0  41587-3 0  9991
2 22236  82.5069 324.4076 0014611 359.4450   0.6753 14.95966877773714
SL-16 R/B               
1 22285U 92093B   26020.68370238  .00000298  00000+0  17717-3 0  9993
2 22285  71.0223 105.0465 0004098 348.4142  11.6886 14.15441093706368
COSMOS 2228             
1 22286U 92094A   26020.93097492  .00005844  00000+0  50451-3 0  9995
2 22286  82.5185 283.0362 0019569 100.9111 259.4315 14.96944816768910
